{"type": "FeatureCollection", "features": [ {"type": "Feature", "properties": {"norad_id": 34077, "name": "IRIDIUM 33 DEB", "group": "iridium-33-debris", "lat": -30.566610811375956, "lon": 45.90105626009112, "alt_km": 678.748389673874, "timestamp": "2025-12-20T14:38:02.354236+00:00", "meta": {"OBJECT_NAME": "IRIDIUM 33 DEB", "OBJECT_ID": "1997-051CL", "EPOCH": "2025-12-20T03:25:48.308736", "MEAN_MOTION": 14.64909698, "ECCENTRICITY": 0.00093578, "INCLINATION": 86.3852, "RA_OF_ASC_NODE": 48.2464, "ARG_OF_PERICENTER": 15.7407, "MEAN_ANOMALY": 13.5022, "EPHEMERIS_TYPE": 0, "CLASSIFICATION_TYPE": "U", "NORAD_CAT_ID": 34077, "ELEMENT_SET_NO": 999, "REV_AT_EPOCH": 88441, "BSTAR": 0.00069119248, "MEAN_MOTION_DOT": 3.719e-05, "MEAN_MOTION_DDOT": 0}, "tle": {"line1": "1 34077U 97051CL  25354.14292024  .00003719  00000+0  69119-3 0  9994", "line2": "2 34077  86.3852  48.2464 0009357  15.7407  13.5022 14.64909698884415"}}, "geometry": {"type": "Point", "coordinates": [45.90105626009112, -30.566610811375956]}}, {"type": "Feature", "properties": {"norad_id": 34079, "name": "IRIDIUM 33 DEB", "group": "iridium-33-debris", "lat": 48.05343654099499, "lon": -178.96036123895422, "alt_km": 616.3604603906724, "timestamp": "2025-12-20T14:38:02.354247+00:00", "meta": {"OBJECT_NAME": "IRIDIUM 33 DEB", "OBJECT_ID": "1997-051CN", "EPOCH": "2025-12-20T01:20:01.279104", "MEAN_MOTION": 14.83701637, "ECCENTRICITY": 0.00047336, "INCLINATION": 86.3768, "RA_OF_ASC_NODE": 5.3347, "ARG_OF_PERICENTER": 342.2564, "MEAN_ANOMALY": 71.3567, "EPHEMERIS_TYPE": 0, "CLASSIFICATION_TYPE": "U", "NORAD_CAT_ID": 34079, "ELEMENT_SET_NO": 999, "REV_AT_EPOCH": 89086, "BSTAR": 0.0010994865, "MEAN_MOTION_DOT": 9.114e-05, "MEAN_MOTION_DDOT": 0}, "tle": {"line1": "1 34079U 97051CN  25354.05557036  .00009114  00000+0  10995-2 0  9995", "line2": "2 34079  86.3768   5.3347 0004733 342.2564  71.3567 14.83701637890868"}}, "geometry": {"type": "Point", "coordinates": [-178.96036123895422, 48.05343654099499]}}, {"type": "Feature", "properties": {"norad_id": 34088, "name": "IRIDIUM 33 DEB", "group": "iridium-33-debris", "lat": 85.59111142765674, "lon": 82.20630622976411, "alt_km": 583.1642118775399, "timestamp": "2025-12-20T14:38:02.354257+00:00", "meta": {"OBJECT_NAME": "IRIDIUM 33 DEB", "OBJECT_ID": "1997-051CX", "EPOCH": "2025-12-20T01:29:37.281120", "MEAN_MOTION": 14.9169164, "ECCENTRICITY": 0.0006466, "INCLINATION": 86.3842, "RA_OF_ASC_NODE": 27.3589, "ARG_OF_PERICENTER": 153.3403, "MEAN_ANOMALY": 235.9617, "EPHEMERIS_TYPE": 0, "CLASSIFICATION_TYPE": "U", "NORAD_CAT_ID": 34088, "ELEMENT_SET_NO": 999, "REV_AT_EPOCH": 88851, "BSTAR": 0.0014202951, "MEAN_MOTION_DOT": 0.00014326, "MEAN_MOTION_DDOT": 0}, "tle": {"line1": "1 34088U 97051CX  25354.06223705  .00014326  00000+0  14203-2 0  9996", "line2": "2 34088  86.3842  27.3589 0006466 153.3403 235.9617 14.91691640888515"}}, "geometry": {"type": "Point", "coordinates": [82.20630622976411, 85.59111142765674]}}, {"type": "Feature", "properties": {"norad_id": 34091, "name": "IRIDIUM 33 DEB", "group": "iridium-33-debris", "lat": 6.055031147962281, "lon": 63.61797728185379, "alt_km": 628.8146899395379, "timestamp": "2025-12-20T14:38:02.354268+00:00", "meta": {"OBJECT_NAME": "IRIDIUM 33 DEB", "OBJECT_ID": "1997-051DA", "EPOCH": "2025-12-20T03:15:56.542176", "MEAN_MOTION": 14.82324174, "ECCENTRICITY": 0.00340016, "INCLINATION": 86.3416, "RA_OF_ASC_NODE": 63.4462, "ARG_OF_PERICENTER": 266.5392, "MEAN_ANOMALY": 93.1941, "EPHEMERIS_TYPE": 0, "CLASSIFICATION_TYPE": "U", "NORAD_CAT_ID": 34091, "ELEMENT_SET_NO": 999, "REV_AT_EPOCH": 87976, "BSTAR": 0.0028845131, "MEAN_MOTION_DOT": 0.00023366, "MEAN_MOTION_DDOT": 0}, "tle": {"line1": "1 34091U 97051DA  25354.13607109  .00023366  00000+0  28845-2 0  9993", "line2": "2 34091  86.3416  63.4462 0034001 266.5392  93.1941 14.82324174879763"}}, "geometry": {"type": "Point", "coordinates": [63.61797728185379, 6.055031147962281]}}, {"type": "Feature", "properties": {"norad_id": 34097, "name": "IRIDIUM 33 DEB", "group": "iridium-33-debris", "lat": -4.060992518772176, "lon": -2.336377317036425, "alt_km": 723.994780056405, "timestamp": "2025-12-20T14:38:02.354278+00:00", "meta": {"OBJECT_NAME": "IRIDIUM 33 DEB", "OBJECT_ID": "1997-051DG", "EPOCH": "2025-12-19T23:35:21.259680", "MEAN_MOTION": 14.34830969, "ECCENTRICITY": 0.0081789, "INCLINATION": 86.1999, "RA_OF_ASC_NODE": 358.2106, "ARG_OF_PERICENTER": 338.4986, "MEAN_ANOMALY": 21.278, "EPHEMERIS_TYPE": 0, "CLASSIFICATION_TYPE": "U", "NORAD_CAT_ID": 34097, "ELEMENT_SET_NO": 999, "REV_AT_EPOCH": 87223, "BSTAR": 0.00099794, "MEAN_MOTION_DOT": 2.959e-05, "MEAN_MOTION_DDOT": 0}, "tle": {"line1": "1 34097U 97051DG  25353.98288495  .00002959  00000+0  99794-3 0  9991", "line2": "2 34097  86.1999 358.2106 0081789 338.4986  21.2780 14.34830969872235"}}, "geometry": {"type": "Point", "coordinates": [-2.336377317036425, -4.060992518772176]}}, {"type": "Feature", "properties": {"norad_id": 34145, "name": "IRIDIUM 33 DEB", "group": "iridium-33-debris", "lat": 61.807644780808104, "lon": 141.92007864771702, "alt_km": 718.8188813422048, "timestamp": "2025-12-20T14:38:02.354288+00:00", "meta": {"OBJECT_NAME": "IRIDIUM 33 DEB", "OBJECT_ID": "1997-051DY", "EPOCH": "2025-12-18T08:48:48.486240", "MEAN_MOTION": 14.42328092, "ECCENTRICITY": 0.00557365, "INCLINATION": 86.2113, "RA_OF_ASC_NODE": 330.0199, "ARG_OF_PERICENTER": 75.968, "MEAN_ANOMALY": 284.7708, "EPHEMERIS_TYPE": 0, "CLASSIFICATION_TYPE": "U", "NORAD_CAT_ID": 34145, "ELEMENT_SET_NO": 999, "REV_AT_EPOCH": 87719, "BSTAR": 0.00092678493, "MEAN_MOTION_DOT": 3.137e-05, "MEAN_MOTION_DDOT": 0}, "tle": {"line1": "1 34145U 97051DY  25352.36722785  .00003137  00000+0  92678-3 0  9994", "line2": "2 34145  86.2113 330.0199 0055736  75.9680 284.7708 14.42328092877199"}}, "geometry": {"type": "Point", "coordinates": [141.92007864771702, 61.807644780808104]}}, {"type": "Feature", "properties": {"norad_id": 34146, "name": "IRIDIUM 33 DEB", "group": "iridium-33-debris", "lat": -53.38441569308781, "lon": -18.69548112520869, "alt_km": 742.6965618299209, "timestamp": "2025-12-20T14:38:02.354299+00:00", "meta": {"OBJECT_NAME": "IRIDIUM 33 DEB", "OBJECT_ID": "1997-051DZ", "EPOCH": "2025-12-20T00:12:57.906720", "MEAN_MOTION": 14.49092995, "ECCENTRICITY": 0.00261928, "INCLINATION": 86.2829, "RA_OF_ASC_NODE": 346.5888, "ARG_OF_PERICENTER": 196.282, "MEAN_ANOMALY": 218.0405, "EPHEMERIS_TYPE": 0, "CLASSIFICATION_TYPE": "U", "NORAD_CAT_ID": 34146, "ELEMENT_SET_NO": 999, "REV_AT_EPOCH": 88212, "BSTAR": 0.00059290558, "MEAN_MOTION_DOT": 2.281e-05, "MEAN_MOTION_DDOT": 0}, "tle": {"line1": "1 34146U 97051DZ  25354.00900355  .00002281  00000+0  59291-3 0  9992", "line2": "2 34146  86.2829 346.5888 0026192 196.2820 218.0405 14.49092995882128"}}, "geometry": {"type": "Point", "coordinates": [-18.69548112520869, -53.38441569308781]}}, {"type": "Feature", "properties": {"norad_id": 34159, "name": "IRIDIUM 33 DEB", "group": "iridium-33-debris", "lat": 81.18542081115883, "lon": 69.1928573657922, "alt_km": 774.6539105672273, "timestamp": "2025-12-20T14:38:02.354309+00:00", "meta": {"OBJECT_NAME": "IRIDIUM 33 DEB", "OBJECT_ID": "1997-051EN", "EPOCH": "2025-12-20T04:14:10.387968", "MEAN_MOTION": 14.38510263, "ECCENTRICITY": 0.00260188, "INCLINATION": 86.3501, "RA_OF_ASC_NODE": 45.0705, "ARG_OF_PERICENTER": 261.5269, "MEAN_ANOMALY": 98.298, "EPHEMERIS_TYPE": 0, "CLASSIFICATION_TYPE": "U", "NORAD_CAT_ID": 34159, "ELEMENT_SET_NO": 999, "REV_AT_EPOCH": 88066, "BSTAR": 0.00026554741, "MEAN_MOTION_DOT": 8.33e-06, "MEAN_MOTION_DDOT": 0}, "tle": {"line1": "1 34159U 97051EN  25354.17650912  .00000833  00000+0  26555-3 0  9993", "line2": "2 34159  86.3501  45.0705 0026018 261.5269  98.2980 14.38510263880663"}}, "geometry": {"type": "Point", "coordinates": [69.1928573657922, 81.18542081115883]}}, {"type": "Feature", "properties": {"norad_id": 34350, "name": "IRIDIUM 33 DEB", "group": "iridium-33-debris", "lat": -54.208294912323346, "lon": -5.71925104721855, "alt_km": 763.8646143923534, "timestamp": "2025-12-20T14:38:02.354319+00:00", "meta": {"OBJECT_NAME": "IRIDIUM 33 DEB", "OBJECT_ID": "1997-051ES", "EPOCH": "2025-12-20T00:11:40.780032", "MEAN_MOTION": 14.4540242, "ECCENTRICITY": 0.0023333, "INCLINATION": 86.3271, "RA_OF_ASC_NODE": 359.653, "ARG_OF_PERICENTER": 112.8766, "MEAN_ANOMALY": 304.2964, "EPHEMERIS_TYPE": 0, "CLASSIFICATION_TYPE": "U", "NORAD_CAT_ID": 34350, "ELEMENT_SET_NO": 999, "REV_AT_EPOCH": 88398, "BSTAR": 0.00022972, "MEAN_MOTION_DOT": 8.31e-06, "MEAN_MOTION_DDOT": 0}, "tle": {"line1": "1 34350U 97051ES  25354.00811088  .00000831  00000+0  22972-3 0  9998", "line2": "2 34350  86.3271 359.6530 0023333 112.8766 304.2964 14.45402420883980"}}, "geometry": {"type": "Point", "coordinates": [-5.71925104721855, -54.208294912323346]}}, {"type": "Feature", "properties": {"norad_id": 34366, "name": "IRIDIUM 33 DEB", "group": "iridium-33-debris", "lat": 19.984020780518748, "lon": -135.43254291301017, "alt_km": 700.8387818609208, "timestamp": "2025-12-20T14:38:02.354330+00:00", "meta": {"OBJECT_NAME": "IRIDIUM 33 DEB", "OBJECT_ID": "1997-051FJ", "EPOCH": "2025-12-20T04:14:24.390816", "MEAN_MOTION": 14.54111544, "ECCENTRICITY": 0.00229649, "INCLINATION": 86.369, "RA_OF_ASC_NODE": 46.079, "ARG_OF_PERICENTER": 116.4779, "MEAN_ANOMALY": 297.5797, "EPHEMERIS_TYPE": 0, "CLASSIFICATION_TYPE": "U", "NORAD_CAT_ID": 34366, "ELEMENT_SET_NO": 999, "REV_AT_EPOCH": 88290, "BSTAR": 0.00060148679, "MEAN_MOTION_DOT": 2.57e-05, "MEAN_MOTION_DDOT": 0}, "tle": {"line1": "1 34366U 97051FJ  25354.17667119  .00002570  00000+0  60149-3 0  9997", "line2": "2 34366  86.3690  46.0790 0022964 116.4779 297.5797 14.54111544882903"}}, "geometry": {"type": "Point", "coordinates": [-135.43254291301017, 19.984020780518748]}}]}